[{"OBJECT_NAME":"ONEWEB-0412","OBJECT_ID":"2021-132W","EPOCH":"2026-04-01T11:15:37.177056","MEAN_MOTION":13.18687831,"ECCENTRICITY":0.0001792,"INCLINATION":87.9236,"RA_OF_ASC_NODE":350.7062,"ARG_OF_PERICENTER":89.2447,"MEAN_ANOMALY":270.889,"EPHEMERIS_TYPE":0,"CLASSIFICATION_TYPE":"U","NORAD_CAT_ID":50489,"ELEMENT_SET_NO":999,"REV_AT_EPOCH":21154,"BSTAR":0.00020803,"MEAN_MOTION_DOT":9.5e-7,"MEAN_MOTION_DDOT":0},{"OBJECT_NAME":"ONEWEB-0413","OBJECT_ID":"2021-132X","EPOCH":"2026-04-01T11:22:43.929984","MEAN_MOTION":13.18688145,"ECCENTRICITY":0.0001959,"INCLINATION":87.923,"RA_OF_ASC_NODE":350.7081,"ARG_OF_PERICENTER":86.3085,"MEAN_ANOMALY":273.8271,"EPHEMERIS_TYPE":0,"CLASSIFICATION_TYPE":"U","NORAD_CAT_ID":50490,"ELEMENT_SET_NO":999,"REV_AT_EPOCH":21148,"BSTAR":-9.9299e-5,"MEAN_MOTION_DOT":-2.6e-7,"MEAN_MOTION_DDOT":0},{"OBJECT_NAME":"ONEWEB-0414","OBJECT_ID":"2021-132Y","EPOCH":"2026-04-01T11:01:20.539200","MEAN_MOTION":13.18687765,"ECCENTRICITY":0.0001695,"INCLINATION":87.9244,"RA_OF_ASC_NODE":350.685,"ARG_OF_PERICENTER":84.9404,"MEAN_ANOMALY":275.1921,"EPHEMERIS_TYPE":0,"CLASSIFICATION_TYPE":"U","NORAD_CAT_ID":50491,"ELEMENT_SET_NO":999,"REV_AT_EPOCH":21151,"BSTAR":8.8037e-5,"MEAN_MOTION_DOT":4.8e-7,"MEAN_MOTION_DDOT":0},{"OBJECT_NAME":"ONEWEB-0417","OBJECT_ID":"2021-132Z","EPOCH":"2026-04-01T11:13:14.530656","MEAN_MOTION":13.18687026,"ECCENTRICITY":0.0001531,"INCLINATION":87.9234,"RA_OF_ASC_NODE":350.7095,"ARG_OF_PERICENTER":75.3417,"MEAN_ANOMALY":284.7885,"EPHEMERIS_TYPE":0,"CLASSIFICATION_TYPE":"U","NORAD_CAT_ID":50492,"ELEMENT_SET_NO":999,"REV_AT_EPOCH":21149,"BSTAR":3.3537e-5,"MEAN_MOTION_DOT":2.6e-7,"MEAN_MOTION_DDOT":0},{"OBJECT_NAME":"ONEWEB-0418","OBJECT_ID":"2021-132AA","EPOCH":"2026-04-01T11:27:18.343296","MEAN_MOTION":13.18687174,"ECCENTRICITY":0.0001406,"INCLINATION":87.9243,"RA_OF_ASC_NODE":350.6999,"ARG_OF_PERICENTER":72.5755,"MEAN_ANOMALY":287.5531,"EPHEMERIS_TYPE":0,"CLASSIFICATION_TYPE":"U","NORAD_CAT_ID":50493,"ELEMENT_SET_NO":999,"REV_AT_EPOCH":21155,"BSTAR":0.00012569,"MEAN_MOTION_DOT":6.2e-7,"MEAN_MOTION_DDOT":0},{"OBJECT_NAME":"ONEWEB-0419","OBJECT_ID":"2021-132AB","EPOCH":"2026-04-01T06:25:49.195200","MEAN_MOTION":13.18687039,"ECCENTRICITY":0.0001713,"INCLINATION":87.9243,"RA_OF_ASC_NODE":350.7412,"ARG_OF_PERICENTER":69.037,"MEAN_ANOMALY":291.0945,"EPHEMERIS_TYPE":0,"CLASSIFICATION_TYPE":"U","NORAD_CAT_ID":50494,"ELEMENT_SET_NO":999,"REV_AT_EPOCH":21144,"BSTAR":-0.00039373,"MEAN_MOTION_DOT":-1.42e-6,"MEAN_MOTION_DDOT":0},{"OBJECT_NAME":"ONEWEB-0420","OBJECT_ID":"2021-132AC","EPOCH":"2026-04-01T11:03:44.473824","MEAN_MOTION":13.18686085,"ECCENTRICITY":0.0001958,"INCLINATION":87.9234,"RA_OF_ASC_NODE":350.7128,"ARG_OF_PERICENTER":80.4974,"MEAN_ANOMALY":279.638,"EPHEMERIS_TYPE":0,"CLASSIFICATION_TYPE":"U","NORAD_CAT_ID":50495,"ELEMENT_SET_NO":999,"REV_AT_EPOCH":21146,"BSTAR":0.00019579,"MEAN_MOTION_DOT":9.0e-7,"MEAN_MOTION_DDOT":0},{"OBJECT_NAME":"ONEWEB-0421","OBJECT_ID":"2021-132AD","EPOCH":"2026-04-01T10:54:14.199264","MEAN_MOTION":13.18685107,"ECCENTRICITY":0.0001833,"INCLINATION":87.9238,"RA_OF_ASC_NODE":350.7076,"ARG_OF_PERICENTER":89.6069,"MEAN_ANOMALY":270.5273,"EPHEMERIS_TYPE":0,"CLASSIFICATION_TYPE":"U","NORAD_CAT_ID":50496,"ELEMENT_SET_NO":999,"REV_AT_EPOCH":21150,"BSTAR":-0.0014611,"MEAN_MOTION_DOT":-5.63e-6,"MEAN_MOTION_DDOT":0},{"OBJECT_NAME":"ONEWEB-0424","OBJECT_ID":"2021-132AE","EPOCH":"2026-04-01T06:18:41.889312","MEAN_MOTION":13.18684556,"ECCENTRICITY":0.0001806,"INCLINATION":87.9245,"RA_OF_ASC_NODE":350.7414,"ARG_OF_PERICENTER":67.3823,"MEAN_ANOMALY":292.75,"EPHEMERIS_TYPE":0,"CLASSIFICATION_TYPE":"U","NORAD_CAT_ID":50497,"ELEMENT_SET_NO":999,"REV_AT_EPOCH":21150,"BSTAR":0.00017378,"MEAN_MOTION_DOT":8.1e-7,"MEAN_MOTION_DDOT":0},{"OBJECT_NAME":"ONEWEB-0426","OBJECT_ID":"2021-132AF","EPOCH":"2026-04-01T10:49:29.568288","MEAN_MOTION":13.18688158,"ECCENTRICITY":0.0001164,"INCLINATION":87.9243,"RA_OF_ASC_NODE":350.696,"ARG_OF_PERICENTER":94.7772,"MEAN_ANOMALY":265.3493,"EPHEMERIS_TYPE":0,"CLASSIFICATION_TYPE":"U","NORAD_CAT_ID":50498,"ELEMENT_SET_NO":999,"REV_AT_EPOCH":21147,"BSTAR":0.00012717,"MEAN_MOTION_DOT":6.3e-7,"MEAN_MOTION_DDOT":0},{"OBJECT_NAME":"ONEWEB-0427","OBJECT_ID":"2021-132AG","EPOCH":"2026-04-01T06:16:19.215264","MEAN_MOTION":13.18687496,"ECCENTRICITY":0.0001505,"INCLINATION":87.9245,"RA_OF_ASC_NODE":350.7206,"ARG_OF_PERICENTER":75.2102,"MEAN_ANOMALY":284.9197,"EPHEMERIS_TYPE":0,"CLASSIFICATION_TYPE":"U","NORAD_CAT_ID":50499,"ELEMENT_SET_NO":999,"REV_AT_EPOCH":21147,"BSTAR":0.00013165,"MEAN_MOTION_DOT":6.5e-7,"MEAN_MOTION_DDOT":0},{"OBJECT_NAME":"ONEWEB-0429","OBJECT_ID":"2021-132AH","EPOCH":"2026-04-01T11:25:07.005792","MEAN_MOTION":13.18685853,"ECCENTRICITY":0.0001864,"INCLINATION":87.9236,"RA_OF_ASC_NODE":350.7087,"ARG_OF_PERICENTER":79.5695,"MEAN_ANOMALY":280.5647,"EPHEMERIS_TYPE":0,"CLASSIFICATION_TYPE":"U","NORAD_CAT_ID":50500,"ELEMENT_SET_NO":999,"REV_AT_EPOCH":21147,"BSTAR":-0.00058286,"MEAN_MOTION_DOT":-2.17e-6,"MEAN_MOTION_DDOT":0},{"OBJECT_NAME":"ONEWEB-0430","OBJECT_ID":"2021-132AJ","EPOCH":"2026-04-01T11:08:30.125184","MEAN_MOTION":13.18686255,"ECCENTRICITY":0.0001931,"INCLINATION":87.9235,"RA_OF_ASC_NODE":350.7091,"ARG_OF_PERICENTER":73.8763,"MEAN_ANOMALY":286.2581,"EPHEMERIS_TYPE":0,"CLASSIFICATION_TYPE":"U","NORAD_CAT_ID":50501,"ELEMENT_SET_NO":999,"REV_AT_EPOCH":21151,"BSTAR":1.9117e-5,"MEAN_MOTION_DOT":2.0e-7,"MEAN_MOTION_DDOT":0},{"OBJECT_NAME":"ONEWEB-0432","OBJECT_ID":"2021-132AK","EPOCH":"2026-04-01T06:29:31.441056","MEAN_MOTION":13.18647109,"ECCENTRICITY":0.0001591,"INCLINATION":87.9244,"RA_OF_ASC_NODE":350.7169,"ARG_OF_PERICENTER":54.8623,"MEAN_ANOMALY":305.2658,"EPHEMERIS_TYPE":0,"CLASSIFICATION_TYPE":"U","NORAD_CAT_ID":50502,"ELEMENT_SET_NO":999,"REV_AT_EPOCH":21144,"BSTAR":0.00012712,"MEAN_MOTION_DOT":6.3e-7,"MEAN_MOTION_DDOT":0},{"OBJECT_NAME":"ONEWEB-0440","OBJECT_ID":"2021-132AL","EPOCH":"2026-04-01T06:09:12.442464","MEAN_MOTION":13.18686524,"ECCENTRICITY":0.0001905,"INCLINATION":87.9246,"RA_OF_ASC_NODE":350.7405,"ARG_OF_PERICENTER":90.6708,"MEAN_ANOMALY":269.4642,"EPHEMERIS_TYPE":0,"CLASSIFICATION_TYPE":"U","NORAD_CAT_ID":50503,"ELEMENT_SET_NO":999,"REV_AT_EPOCH":21143,"BSTAR":-0.00062846,"MEAN_MOTION_DOT":-2.35e-6,"MEAN_MOTION_DDOT":0},{"OBJECT_NAME":"ONEWEB-0450","OBJECT_ID":"2021-132AM","EPOCH":"2026-04-01T11:27:41.439744","MEAN_MOTION":13.18685917,"ECCENTRICITY":0.000201,"INCLINATION":87.9233,"RA_OF_ASC_NODE":350.7098,"ARG_OF_PERICENTER":78.2719,"MEAN_ANOMALY":281.8638,"EPHEMERIS_TYPE":0,"CLASSIFICATION_TYPE":"U","NORAD_CAT_ID":50504,"ELEMENT_SET_NO":999,"REV_AT_EPOCH":21149,"BSTAR":-0.00039033,"MEAN_MOTION_DOT":-1.41e-6,"MEAN_MOTION_DDOT":0},{"OBJECT_NAME":"ONEWEB-0410","OBJECT_ID":"2022-012A","EPOCH":"2026-04-01T12:31:18.203808","MEAN_MOTION":13.17651124,"ECCENTRICITY":4.65e-5,"INCLINATION":87.9194,"RA_OF_ASC_NODE":21.0745,"ARG_OF_PERICENTER":70.9738,"MEAN_ANOMALY":289.1444,"EPHEMERIS_TYPE":0,"CLASSIFICATION_TYPE":"U","NORAD_CAT_ID":51622,"ELEMENT_SET_NO":999,"REV_AT_EPOCH":20360,"BSTAR":3.9268e-5,"MEAN_MOTION_DOT":2.8e-7,"MEAN_MOTION_DDOT":0}]
