ONEWEB-0412             
1 50489U 21132W   26091.46918029  .00000095  00000+0  20803-3 0  9991
2 50489  87.9236 350.7062 0001792  89.2447 270.8890 13.18687831211542
ONEWEB-0413             
1 50490U 21132X   26091.47411956 -.00000026  00000+0 -99299-4 0  9993
2 50490  87.9230 350.7081 0001959  86.3085 273.8271 13.18688145211488
ONEWEB-0414             
1 50491U 21132Y   26091.45926550  .00000048  00000+0  88037-4 0  9993
2 50491  87.9244 350.6850 0001695  84.9404 275.1921 13.18687765211511
ONEWEB-0417             
1 50492U 21132Z   26091.46752929  .00000026  00000+0  33537-4 0  9993
2 50492  87.9234 350.7095 0001531  75.3417 284.7885 13.18687026211492
ONEWEB-0418             
1 50493U 21132AA  26091.47729564  .00000062  00000+0  12569-3 0  9995
2 50493  87.9243 350.6999 0001406  72.5755 287.5531 13.18687174211550
ONEWEB-0419             
1 50494U 21132AB  26091.26793050 -.00000142  00000+0 -39373-3 0  9997
2 50494  87.9243 350.7412 0001713  69.0370 291.0945 13.18687039211444
ONEWEB-0420             
1 50495U 21132AC  26091.46093141  .00000090  00000+0  19579-3 0  9990
2 50495  87.9234 350.7128 0001958  80.4974 279.6380 13.18686085211464
ONEWEB-0421             
1 50496U 21132AD  26091.45433101 -.00000563  00000+0 -14611-2 0  9992
2 50496  87.9238 350.7076 0001833  89.6069 270.5273 13.18685107211509
ONEWEB-0424             
1 50497U 21132AE  26091.26298483  .00000081  00000+0  17378-3 0  9991
2 50497  87.9245 350.7414 0001806  67.3823 292.7500 13.18684556211501
ONEWEB-0426             
1 50498U 21132AF  26091.45103667  .00000063  00000+0  12717-3 0  9994
2 50498  87.9243 350.6960 0001164  94.7772 265.3493 13.18688158211474
ONEWEB-0427             
1 50499U 21132AG  26091.26133351  .00000065  00000+0  13165-3 0  9997
2 50499  87.9245 350.7206 0001505  75.2102 284.9197 13.18687496211473
ONEWEB-0429             
1 50500U 21132AH  26091.47577553 -.00000217  00000+0 -58286-3 0  9993
2 50500  87.9236 350.7087 0001864  79.5695 280.5647 13.18685853211472
ONEWEB-0430             
1 50501U 21132AJ  26091.46423756  .00000020  00000+0  19117-4 0  9999
2 50501  87.9235 350.7091 0001931  73.8763 286.2581 13.18686255211517
ONEWEB-0432             
1 50502U 21132AK  26091.27050279  .00000063  00000+0  12712-3 0  9995
2 50502  87.9244 350.7169 0001591  54.8623 305.2658 13.18647109211444
ONEWEB-0440             
1 50503U 21132AL  26091.25639401 -.00000235  00000+0 -62846-3 0  9990
2 50503  87.9246 350.7405 0001905  90.6708 269.4642 13.18686524211438
ONEWEB-0450             
1 50504U 21132AM  26091.47756296 -.00000141  00000+0 -39033-3 0  9995
2 50504  87.9233 350.7098 0002010  78.2719 281.8638 13.18685917211499
ONEWEB-0410             
1 51622U 22012A   26091.52173847  .00000028  00000+0  39268-4 0  9999
2 51622  87.9194  21.0745 0000465  70.9738 289.1444 13.17651124203608
